ROBUSTA-3A (MEDITERRAN*)
1 60243U 24128J   26066.08203537  .00011508  00000+0  69458-3 0  9999
2 60243  61.9867 208.8827 0052268 107.7829 252.8979 15.09999392 90991
LASARSAT                
1 62391U 24247Q   26066.15565249  .00033026  00000+0  81604-3 0  9992
2 62391  44.9748 112.8563 0002401  17.3542 342.7427 15.39965937 67553
CROCUBE                 
1 62394U 24247T   26066.18728366  .00037125  00000+0  88238-3 0  9993
2 62394  44.9724 111.3248 0002454 359.0936   0.9947 15.41091428 67575
