[{"OBJECT_NAME":"ROBUSTA-3A (MEDITERRANEE)","OBJECT_ID":"2024-128J","EPOCH":"2026-03-07T01:58:07.855104","MEAN_MOTION":15.09999392,"ECCENTRICITY":0.0052268,"INCLINATION":61.9867,"RA_OF_ASC_NODE":208.8827,"ARG_OF_PERICENTER":107.7829,"MEAN_ANOMALY":252.8979,"EPHEMERIS_TYPE":0,"CLASSIFICATION_TYPE":"U","NORAD_CAT_ID":60243,"ELEMENT_SET_NO":999,"REV_AT_EPOCH":9099,"BSTAR":0.00069458,"MEAN_MOTION_DOT":0.00011508,"MEAN_MOTION_DDOT":0},{"OBJECT_NAME":"LASARSAT","OBJECT_ID":"2024-247Q","EPOCH":"2026-03-07T03:44:08.374272","MEAN_MOTION":15.39965937,"ECCENTRICITY":0.0002402,"INCLINATION":44.9748,"RA_OF_ASC_NODE":112.8563,"ARG_OF_PERICENTER":17.3542,"MEAN_ANOMALY":342.7427,"EPHEMERIS_TYPE":0,"CLASSIFICATION_TYPE":"U","NORAD_CAT_ID":62391,"ELEMENT_SET_NO":999,"REV_AT_EPOCH":6755,"BSTAR":0.00081604,"MEAN_MOTION_DOT":0.00033026,"MEAN_MOTION_DDOT":0},{"OBJECT_NAME":"CROCUBE","OBJECT_ID":"2024-247T","EPOCH":"2026-03-07T04:29:41.308224","MEAN_MOTION":15.41091428,"ECCENTRICITY":0.0002454,"INCLINATION":44.9724,"RA_OF_ASC_NODE":111.3248,"ARG_OF_PERICENTER":359.0936,"MEAN_ANOMALY":0.9947,"EPHEMERIS_TYPE":0,"CLASSIFICATION_TYPE":"U","NORAD_CAT_ID":62394,"ELEMENT_SET_NO":999,"REV_AT_EPOCH":6757,"BSTAR":0.00088238,"MEAN_MOTION_DOT":0.00037125,"MEAN_MOTION_DDOT":0}]
